PROBA-1                 
1 26958U 01049B   26192.96059578  .00001772  00000+0  11697-3 0  9996
2 26958  97.9609 202.3584 0055903  40.3743 320.1613 15.07607446347357
CUTE-1 (CO-55)          
1 27844U 03031E   26192.83459775  .00000160  00000+0  88088-4 0  9992
2 27844  98.6741 201.0838 0010755 111.2957 248.9371 14.24350218195186
CUBESAT XI-IV (CO-57)   
1 27848U 03031J   26192.55431067  .00000130  00000+0  76240-4 0  9993
2 27848  98.6772 200.4999 0010408 128.9651 231.2457 14.23633286194846
APRIZESAT 4             
1 35684U 09041D   26192.80195894  .00000354  00000+0  49034-4 0  9999
2 35684  98.1404 268.6124 0042057 240.8195 118.8807 14.83910952915011
APRIZESAT 3             
1 35686U 09041F   26192.37396107  .00001064  00000+0  96629-4 0  9994
2 35686  98.2090 346.7610 0061044 348.5178  11.4645 14.96303123919996
PROBA-2                 
1 36037U 09059B   26192.44940836  .00000104  00000+0  34681-4 0  9990
2 36037  98.2457  15.4667 0012742 200.5903 159.4782 14.54872679885055
APRIZESAT 5             
1 37792U 11044E   26192.80096187  .00000453  00000+0  64640-4 0  9992
2 37792  98.2450 126.5399 0050739 283.9299  75.6273 14.81124114802433
APRIZESAT 6             
1 37793U 11044F   26192.73832200  .00000397  00000+0  63524-4 0  9996
2 37793  98.2343 103.7374 0043339   9.2855  45.5114 14.76953608800777
PROBA-V                 
1 39159U 13021A   26192.85933208  .00000043  00000+0  36884-4 0  9991
2 39159  98.3603 170.2499 0005344  67.7410 292.4336 14.23603107684623
APRIZESAT 7             
1 39416U 13066A   26192.84096827  .00000534  00000+0  58178-4 0  9997
2 39416  97.7720 145.7086 0037009 128.0579 232.3988 14.91614934684903
APRIZESAT 8             
1 39425U 13066K   26192.82605686  .00000423  00000+0  51745-4 0  9994
2 39425  97.8228 139.9521 0045218 203.0906 156.8279 14.87693219683332
BUGSAT-1 (TITA)         
1 40014U 14033E   26192.92448928  .00003093  00000+0  16401-3 0  9995
2 40014  98.0434 286.9243 0029124  96.5819 263.8729 15.15859419659587
SAUDISAT 4              
1 40016U 14033G   26192.87096491  .00000274  00000+0  42891-4 0  9996
2 40016  97.7612 338.1563 0044532 354.9490   5.1267 14.79573545649725
APRIZESAT 9             
1 40018U 14033J   26192.84568323  .00000378  00000+0  62796-4 0  9994
2 40018  97.9089 325.4456 0067338 120.4864 240.3018 14.74249965647194
APRIZESAT 10            
1 40019U 14033K   26192.82052080  .00000330  00000+0  59735-4 0  9998
2 40019  97.9677 319.2345 0078454 194.1474 165.7536 14.70908468645876
TECHDEMOSAT-1 (TDS-1)   
1 40076U 14037H   26192.88518612  .00004272  00000+0  24189-3 0  9992
2 40076  98.3822 187.5538 0006572 169.0701 191.0671 15.13649220651967
TECHNOSAT               
1 42829U 17042E   26192.78247322  .00002304  00000+0  16562-3 0  9995
2 42829  97.4306 349.5090 0017736  14.3873 345.7855 15.05098506490409
FLYING LAPTOP           
1 42831U 17042G   26192.91420131  .00002371  00000+0  18804-3 0  9999
2 42831  97.4788 347.5145 0019849  42.8642 317.4125 15.01300179490169
HAWK-A                  
1 43765U 18099H   26192.95751059  .00004339  00000+0  17431-3 0  9990
2 43765  97.3904 244.8727 0034381 195.3513 164.6685 15.24938254416874
HAWK-B                  
1 43794U 18099AN  26192.68026757  .00003655  00000+0  15607-3 0  9995
2 43794  97.3953 243.9622 0031043 214.6095 145.3122 15.23089676416760
HAWK-C                  
1 43799U 18099AT  26192.74663767  .00004981  00000+0  17842-3 0  9991
2 43799  97.3882 245.6984 0039957 196.0410 163.9568 15.28455421417662
SALSAT                  
1 46495U 20068K   26192.54062004  .00004447  00000+0  15528-3 0  9997
2 46495  97.8855 197.0941 0008823 206.5203 153.5586 15.30139435319080
HAWK-2C                 
1 47502U 21006CT  26192.66634745  .00004059  00000+0  12191-3 0  9992
2 47502  97.2271 236.4900 0008596 110.8364 249.3801 15.34960543303253
HAWK-2A                 
1 47505U 21006CW  26192.66860602  .00004105  00000+0  12322-3 0  9996
2 47505  97.2313 237.1844 0008103 114.0460 246.1633 15.34975584303254
HAWK-2B                 
1 47508U 21006CZ  26192.72761057  .00004605  00000+0  13734-3 0  9993
2 47508  97.2184 235.5351 0008667 112.2337 247.9827 15.35104016303266
HAWK-3B                 
1 48931U 21059BE  26192.53493957  .00032448  00000+0  25309-3 0  9999
2 48931  97.6639  31.5827 0004168 212.0570 148.0439 15.71629594281671
HAWK-3C                 
1 48948U 21059BX  26192.53462930  .00032017  00000+0  24970-3 0  9999
2 48948  97.6752  37.3098 0004248 211.5765 148.5243 15.71633627281678
HAWK-3A                 
1 48957U 21059CG  26192.53451707  .00032665  00000+0  25471-3 0  9995
2 48957  97.6700  34.4950 0004352 212.7236 147.3758 15.71633774281679
HAWK-5C                 
1 52754U 22057Y   26191.38716227  .00012974  00000+0  21565-3 0  9998
2 52754  97.6609 352.5681 0003251   5.7698 354.3591 15.52213641229944
HAWK-5B                 
1 52756U 22057AA  26192.86967942  .00011345  00000+0  18860-3 0  9991
2 52756  97.6620 352.5006 0003792 346.6036  13.5114 15.52245058230172
